{
  "type": "FeatureCollection",
  "features": [
    {
      "type": "Feature",
      "properties": {
        "norad_id": 37487,
        "name": "COSMOS 2251 DEB",
        "group": "cosmos-2251-debris",
        "lat": -52.961057639478376,
        "lon": 156.72433260208328,
        "alt_km": 625.7943969632552,
        "timestamp": "2025-12-19T04:59:48.704602+00:00",
        "meta_object_name": "COSMOS 2251 DEB",
        "meta_object_id": "1993-036BLQ",
        "meta_epoch": "2025-12-12T06:17:24.389376",
        "meta_mean_motion": 14.80982589,
        "meta_eccentricity": 0.00255931,
        "meta_inclination": 73.9026,
        "meta_ra_of_asc_node": 193.0379,
        "meta_arg_of_pericenter": 31.2136,
        "meta_mean_anomaly": 329.0553,
        "meta_ephemeris_type": 0,
        "meta_classification_type": "U",
        "meta_norad_cat_id": 37487,
        "meta_element_set_no": 999,
        "meta_rev_at_epoch": 81238,
        "meta_bstar": 0.0042593386,
        "meta_mean_motion_dot": 0.00033302,
        "meta_mean_motion_ddot": 0,
        "tle_line1": "1 37487U 93036BLQ 25346.26208784  .00033302  00000+0  42593-2 0  9992",
        "tle_line2": "2 37487  73.9026 193.0379 0025593  31.2136 329.0553 14.80982589812383"
      },
      "geometry": {
        "type": "Point",
        "coordinates": [
          156.72433260208328,
          -52.961057639478376
        ]
      }
    },
    {
      "type": "Feature",
      "properties": {
        "norad_id": 37491,
        "name": "COSMOS 2251 DEB",
        "group": "cosmos-2251-debris",
        "lat": 58.72491688623258,
        "lon": 54.86863811269927,
        "alt_km": 1144.4819099463857,
        "timestamp": "2025-12-19T04:59:48.704613+00:00",
        "meta_object_name": "COSMOS 2251 DEB",
        "meta_object_id": "1993-036BLU",
        "meta_epoch": "2025-12-18T10:56:34.756512",
        "meta_mean_motion": 13.75306466,
        "meta_eccentricity": 0.03168182,
        "meta_inclination": 73.9061,
        "meta_ra_of_asc_node": 264.5073,
        "meta_arg_of_pericenter": 256.5569,
        "meta_mean_anomaly": 100.0063,
        "meta_ephemeris_type": 0,
        "meta_classification_type": "U",
        "meta_norad_cat_id": 37491,
        "meta_element_set_no": 999,
        "meta_rev_at_epoch": 55825,
        "meta_bstar": 0.00075469167,
        "meta_mean_motion_dot": 1.019e-05,
        "meta_mean_motion_ddot": 0,
        "tle_line1": "1 37491U 93036BLU 25352.45595783  .00001019  00000+0  75469-3 0  9992",
        "tle_line2": "2 37491  73.9061 264.5073 0316818 256.5569 100.0063 13.75306466558250"
      },
      "geometry": {
        "type": "Point",
        "coordinates": [
          54.86863811269927,
          58.72491688623258
        ]
      }
    },
    {
      "type": "Feature",
      "properties": {
        "norad_id": 37498,
        "name": "COSMOS 2251 DEB",
        "group": "cosmos-2251-debris",
        "lat": -34.42580574165573,
        "lon": 2.959737850085447,
        "alt_km": 707.6838044522538,
        "timestamp": "2025-12-19T04:59:48.704623+00:00",
        "meta_object_name": "COSMOS 2251 DEB",
        "meta_object_id": "1993-036BMB",
        "meta_epoch": "2025-12-17T05:47:45.632832",
        "meta_mean_motion": 14.54797097,
        "meta_eccentricity": 0.00121661,
        "meta_inclination": 74.035,
        "meta_ra_of_asc_node": 175.365,
        "meta_arg_of_pericenter": 238.5243,
        "meta_mean_anomaly": 121.4732,
        "meta_ephemeris_type": 0,
        "meta_classification_type": "U",
        "meta_norad_cat_id": 37498,
        "meta_element_set_no": 999,
        "meta_rev_at_epoch": 65420,
        "meta_bstar": 0.00050498457,
        "meta_mean_motion_dot": 2.139e-05,
        "meta_mean_motion_ddot": 0,
        "tle_line1": "1 37498U 93036BMB 25351.24150038  .00002139  00000+0  50498-3 0  9994",
        "tle_line2": "2 37498  74.0350 175.3650 0012166 238.5243 121.4732 14.54797097654202"
      },
      "geometry": {
        "type": "Point",
        "coordinates": [
          2.959737850085447,
          -34.42580574165573
        ]
      }
    },
    {
      "type": "Feature",
      "properties": {
        "norad_id": 37499,
        "name": "COSMOS 2251 DEB",
        "group": "cosmos-2251-debris",
        "lat": -45.28673691379712,
        "lon": -66.45567605150646,
        "alt_km": 777.572457956845,
        "timestamp": "2025-12-19T04:59:48.704633+00:00",
        "meta_object_name": "COSMOS 2251 DEB",
        "meta_object_id": "1993-036BMC",
        "meta_epoch": "2025-12-18T20:50:53.978784",
        "meta_mean_motion": 14.34348181,
        "meta_eccentricity": 0.00271787,
        "meta_inclination": 74.038,
        "meta_ra_of_asc_node": 310.9692,
        "meta_arg_of_pericenter": 25.1963,
        "meta_mean_anomaly": 335.0508,
        "meta_ephemeris_type": 0,
        "meta_classification_type": "U",
        "meta_norad_cat_id": 37499,
        "meta_element_set_no": 999,
        "meta_rev_at_epoch": 85237,
        "meta_bstar": 0.00013763408,
        "meta_mean_motion_dot": 3.62e-06,
        "meta_mean_motion_ddot": 0,
        "tle_line1": "1 37499U 93036BMC 25352.86868031  .00000362  00000+0  13763-3 0  9993",
        "tle_line2": "2 37499  74.0380 310.9692 0027178  25.1963 335.0508 14.34348181852373"
      },
      "geometry": {
        "type": "Point",
        "coordinates": [
          -66.45567605150646,
          -45.28673691379712
        ]
      }
    },
    {
      "type": "Feature",
      "properties": {
        "norad_id": 37528,
        "name": "COSMOS 2251 DEB",
        "group": "cosmos-2251-debris",
        "lat": 52.14680912544967,
        "lon": -91.62913583841637,
        "alt_km": 728.8223247644592,
        "timestamp": "2025-12-19T04:59:48.704643+00:00",
        "meta_object_name": "COSMOS 2251 DEB",
        "meta_object_id": "1993-036BNH",
        "meta_epoch": "2025-12-17T01:06:35.387424",
        "meta_mean_motion": 14.50536544,
        "meta_eccentricity": 0.00211941,
        "meta_inclination": 74.037,
        "meta_ra_of_asc_node": 114.0433,
        "meta_arg_of_pericenter": 261.8302,
        "meta_mean_anomaly": 98.0455,
        "meta_ephemeris_type": 0,
        "meta_classification_type": "U",
        "meta_norad_cat_id": 37528,
        "meta_element_set_no": 999,
        "meta_rev_at_epoch": 85993,
        "meta_bstar": 0.00037344013,
        "meta_mean_motion_dot": 1.439e-05,
        "meta_mean_motion_ddot": 0,
        "tle_line1": "1 37528U 93036BNH 25351.04624291  .00001439  00000+0  37344-3 0  9990",
        "tle_line2": "2 37528  74.0370 114.0433 0021194 261.8302  98.0455 14.50536544859935"
      },
      "geometry": {
        "type": "Point",
        "coordinates": [
          -91.62913583841637,
          52.14680912544967
        ]
      }
    },
    {
      "type": "Feature",
      "properties": {
        "norad_id": 37530,
        "name": "COSMOS 2251 DEB",
        "group": "cosmos-2251-debris",
        "lat": 20.006793456534886,
        "lon": -32.219825069640365,
        "alt_km": 757.7786352415469,
        "timestamp": "2025-12-19T04:59:48.704659+00:00",
        "meta_object_name": "COSMOS 2251 DEB",
        "meta_object_id": "1993-036BNK",
        "meta_epoch": "2025-12-16T15:31:15.279168",
        "meta_mean_motion": 14.34508686,
        "meta_eccentricity": 0.00259991,
        "meta_inclination": 74.0359,
        "meta_ra_of_asc_node": 326.4868,
        "meta_arg_of_pericenter": 27.4409,
        "meta_mean_anomaly": 90.6459,
        "meta_ephemeris_type": 0,
        "meta_classification_type": "U",
        "meta_norad_cat_id": 37530,
        "meta_element_set_no": 999,
        "meta_rev_at_epoch": 85288,
        "meta_bstar": 0.00021920121,
        "meta_mean_motion_dot": 5.94e-06,
        "meta_mean_motion_ddot": 0,
        "tle_line1": "1 37530U 93036BNK 25350.64670462  .00000594  00000+0  21920-3 0  9993",
        "tle_line2": "2 37530  74.0359 326.4868 0025999  27.4409  90.6459 14.34508686852884"
      },
      "geometry": {
        "type": "Point",
        "coordinates": [
          -32.219825069640365,
          20.006793456534886
        ]
      }
    },
    {
      "type": "Feature",
      "properties": {
        "norad_id": 37532,
        "name": "COSMOS 2251 DEB",
        "group": "cosmos-2251-debris",
        "lat": -14.365569058176577,
        "lon": -160.4652516630369,
        "alt_km": 746.3201566754406,
        "timestamp": "2025-12-19T04:59:48.704669+00:00",
        "meta_object_name": "COSMOS 2251 DEB",
        "meta_object_id": "1993-036BNM",
        "meta_epoch": "2025-12-14T09:22:45.259968",
        "meta_mean_motion": 14.42410404,
        "meta_eccentricity": 0.00160101,
        "meta_inclination": 74.0496,
        "meta_ra_of_asc_node": 212.6604,
        "meta_arg_of_pericenter": 313.2255,
        "meta_mean_anomaly": 226.6563,
        "meta_ephemeris_type": 0,
        "meta_classification_type": "U",
        "meta_norad_cat_id": 37532,
        "meta_element_set_no": 999,
        "meta_rev_at_epoch": 84939,
        "meta_bstar": 0.00027461522,
        "meta_mean_motion_dot": 8.83e-06,
        "meta_mean_motion_ddot": 0,
        "tle_line1": "1 37532U 93036BNM 25348.39080162  .00000883  00000+0  27462-3 0  9994",
        "tle_line2": "2 37532  74.0496 212.6604 0016010 313.2255 226.6563 14.42410404849399"
      },
      "geometry": {
        "type": "Point",
        "coordinates": [
          -160.4652516630369,
          -14.365569058176577
        ]
      }
    }
  ]
}